NORAD_CAT_ID,OBJECT_NAME,OBJECT_TYPE,EPOCH,MEAN_MOTION,ECCENTRICITY,INCLINATION,RA_OF_ASC_NODE,ARG_OF_PERICENTER,MEAN_ANOMALY,BSTAR,MEAN_MOTION_DOT,MEAN_MOTION_DDOT,TLE_LINE0,TLE_LINE1,TLE_LINE2,SEMIMAJOR_AXIS,PERIOD,APOGEE,PERIGEE,DECAYED
27216,PSLV DEB,DEBRIS,2020-04-12 22:54:34,15.03533937,0.0031571999999999998,98.23,88.2662,331.7795,91.538,8.6741e-05,1.124e-05,0.0,0 PSLV DEB,1 27216U 01049FL  20103.95456073 +.00001124 +00000-0 +86741-4 0  9995,2 27216 098.2300 088.2662 0031572 331.7795 091.5380 15.03533937992327,6934.147,95.774,577.904,534.119,0.0
27216,PSLV DEB,DEBRIS,2020-04-13 18:20:34,15.03536346,0.0031495,98.2299,89.1269,329.0132,154.4183,8.688e-05,1.126e-05,0.0,0 PSLV DEB,1 27216U 01049FL  20104.76428418  .00001126  00000-0  86880-4 0  9993,2 27216  98.2299  89.1269 0031495 329.0132 154.4183 15.03536346992446,6934.139,95.774,577.8430000000002,534.165,0.0
27216,PSLV DEB,DEBRIS,2020-04-14 11:55:01,15.03538636,0.0031443,98.2299,89.9053,326.4876,158.0212,8.757e-05,1.136e-05,0.0,0 PSLV DEB,1 27216U 01049FL  20105.49654181 +.00001136 +00000-0 +87570-4 0  9990,2 27216 098.2299 089.9053 0031443 326.4876 158.0212 15.03538636992553,6934.132,95.774,577.8,534.194,0.0
27216,PSLV DEB,DEBRIS,2020-04-15 03:36:47,15.03539678,0.0031404,98.2298,90.6006,324.2145,98.073,7.8496e-05,1.01e-05,0.0,0 PSLV DEB,1 27216U 01049FL  20106.15054692  .00001010  00000-0  78496-4 0  9993,2 27216  98.2298  90.6006 0031404 324.2145  98.0730 15.03539678992657,6934.129,95.774,577.77,534.2180000000002,0.0
27216,PSLV DEB,DEBRIS,2020-04-15 11:53:03,15.03540476,0.0031361,98.2297,90.9669,323.0331,163.5091,7.6022e-05,9.76e-06,0.0,0 PSLV DEB,1 27216U 01049FL  20106.49517851 +.00000976 +00000-0 +76022-4 0  9994,2 27216 098.2297 090.9669 0031361 323.0331 163.5091 15.03540476992702,6934.126,95.774,577.738,534.245,0.0
27216,PSLV DEB,DEBRIS,2020-04-16 04:56:46,15.03541536,0.0031319000000000004,98.2296,91.7226,320.5457,51.626999999999995,6.7825e-05,8.63e-06,0.0,0 PSLV DEB,1 27216U 01049FL  20107.20609324 +.00000863 +00000-0 +67825-4 0  9997,2 27216 098.2296 091.7226 0031319 320.5457 051.6270 15.03541536992819,6934.123000000001,95.774,577.705,534.271,0.0
27216,PSLV DEB,DEBRIS,2020-04-17 11:47:29,15.035437300000002,0.0031260999999999997,98.2295,93.0887,316.0412,168.4008,5.556100000000001e-05,6.94e-06,0.0,0 PSLV DEB,1 27216U 01049FL  20108.49130799  .00000694  00000-0  55561-4 0  9990,2 27216  98.2295  93.0887 0031261 316.0412 168.4008 15.03543730993009,6934.116,95.774,577.658,534.305,0.0
27216,PSLV DEB,DEBRIS,2020-04-17 22:39:18,15.03544584,0.0031256,98.2294,93.5698,314.4495,98.5884,5.434e-05,6.77e-06,0.0,0 PSLV DEB,1 27216U 01049FL  20108.94396156 +.00000677 +00000-0 +54340-4 0  9996,2 27216 098.2294 093.5698 0031256 314.4495 098.5884 15.03544584993070,6934.114000000001,95.774,577.6519999999998,534.306,0.0
27216,PSLV DEB,DEBRIS,2020-04-18 04:51:47,15.03544994,0.0031245,98.2294,93.8448,313.5354,58.7387,5.3621e-05,6.67e-06,0.0,0 PSLV DEB,1 27216U 01049FL  20109.20262792 +.00000667 +00000-0 +53621-4 0  9994,2 27216 098.2294 093.8448 0031245 313.5354 058.7387 15.03544994993114,6934.113,95.774,577.643,534.312,0.0
27216,PSLV DEB,DEBRIS,2020-04-18 18:08:27,15.03545245,0.0031230999999999997,98.2292,94.4328,311.5782,173.4194,4.2527e-05,5.14e-06,0.0,0 PSLV DEB,1 27216U 01049FL  20109.75586983  .00000514  00000-0  42527-4 0  9999,2 27216  98.2292  94.4328 0031231 311.5782 173.4194 15.03545245993193,6934.111999999999,95.774,577.633,534.321,0.0
27216,PSLV DEB,DEBRIS,2020-04-18 22:38:21,15.03545956,0.003124,98.2293,94.6321,310.9118,107.9964,4.7051e-05,5.77e-06,0.0,0 PSLV DEB,1 27216U 01049FL  20109.94330362 +.00000577 +00000-0 +47051-4 0  9994,2 27216 098.2293 094.6321 0031240 310.9118 107.9964 15.03545956993225,6934.11,95.774,577.637,534.312,0.0
27216,PSLV DEB,DEBRIS,2020-04-19 05:03:08,15.03546195,0.0031249000000000003,98.2293,94.9162,309.9695,114.3778,4.5328000000000004e-05,5.53e-06,0.0,0 PSLV DEB,1 27216U 01049FL  20110.21051108 +.00000553 +00000-0 +45328-4 0  9993,2 27216 098.2293 094.9162 0031249 309.9695 114.3778 15.03546195993263,6934.109,95.774,577.6419999999998,534.305,0.0
27216,PSLV DEB,DEBRIS,2020-04-19 11:42:15,15.03546588,0.0031236000000000002,98.2292,95.2107,308.982,174.6854,4.4263999999999995e-05,5.38e-06,0.0,0 PSLV DEB,1 27216U 01049FL  20110.48767876 +.00000538 +00000-0 +44264-4 0  9999,2 27216 098.2292 095.2107 0031236 308.9820 174.6854 15.03546588993305,6934.108,95.774,577.632,534.313,0.0
27216,PSLV DEB,DEBRIS,2020-04-19 22:34:17,15.03546778,0.0031258,98.2292,95.6921,307.3943,105.6872,3.7001999999999996e-05,4.38e-06,0.0,0 PSLV DEB,1 27216U 01049FL  20110.94048281  .00000438  00000-0  37002-4 0  9993,2 27216  98.2292  95.6921 0031258 307.3943 105.6872 15.03546778993378,6934.107,95.774,577.6469999999998,534.297,0.0
27216,PSLV DEB,DEBRIS,2020-04-20 10:11:52,15.03548094,0.0031245,98.2291,96.20700000000001,305.6745,207.9275,4.5673e-05,5.58e-06,0.0,0 PSLV DEB,1 27216U 01049FL  20111.42491795 +.00000558 +00000-0 +45673-4 0  9995,2 27216 098.2291 096.2070 0031245 305.6745 207.9275 15.03548094993440,6934.103,95.773,577.634,534.302,0.0
27216,PSLV DEB,DEBRIS,2020-04-21 10:09:27,15.03550447,0.0031250999999999996,98.2291,97.2682,302.1437,211.8011,5.673800000000001e-05,7.1e-06,0.0,0 PSLV DEB,1 27216U 01049FL  20112.42323576 +.00000710 +00000-0 +56738-4 0  9991,2 27216 098.2291 097.2682 0031251 302.1437 211.8011 15.03550447993590,6934.096,95.773,577.631,534.2909999999998,0.0
27216,PSLV DEB,DEBRIS,2020-04-22 10:06:45,15.035532199999999,0.0031269,98.2291,98.3291,298.6132,214.6639,7.209600000000001e-05,9.22e-06,0.0,0 PSLV DEB,1 27216U 01049FL  20113.42136531 +.00000922 +00000-0 +72096-4 0  9995,2 27216 098.2291 098.3291 0031269 298.6132 214.6639 15.03553220993744,6934.0869999999995,95.773,577.634,534.27,0.0
27216,PSLV DEB,DEBRIS,2020-04-22 17:58:42,15.03553385,0.0031278,98.229,98.6775,297.4567,188.6735,6.9384e-05,8.85e-06,0.0,0 PSLV DEB,1 27216U 01049FL  20113.74909813  .00000885  00000-0  69384-4 0  9995,2 27216  98.2290  98.6775 0031278 297.4567 188.6735 15.03553385993796,6934.0869999999995,95.773,577.64,534.263,0.0
27216,PSLV DEB,DEBRIS,2020-04-23 03:17:43,15.03553412,0.0031276999999999998,98.229,99.0902,296.09,130.02700000000002,6.3441e-05,8.03e-06,0.0,0 PSLV DEB,1 27216U 01049FL  20114.13730532 +.00000803 +00000-0 +63441-4 0  9997,2 27216 098.2290 099.0902 0031277 296.0900 130.0270 15.03553412993851,6934.0869999999995,95.773,577.639,534.264,0.0
27216,PSLV DEB,DEBRIS,2020-04-23 11:32:33,15.03554074,0.0031271000000000003,98.229,99.4553,294.8744,190.1634,6.549899999999999e-05,8.31e-06,0.0,0 PSLV DEB,1 27216U 01049FL  20114.48094826 +.00000831 +00000-0 +65499-4 0  9990,2 27216 098.2290 099.4553 0031271 294.8744 190.1634 15.03554074993905,6934.085,95.773,577.633,534.266,0.0
27216,PSLV DEB,DEBRIS,2020-04-23 22:25:52,15.03555292,0.0031289,98.229,99.9376,293.2769,125.9879,7.2979e-05,9.35e-06,0.0,0 PSLV DEB,1 27216U 01049FL  20114.93464016  .00000935  00000-0  72979-4 0  9998,2 27216  98.2290  99.9376 0031289 293.2769 125.9879 15.03555292993979,6934.081,95.773,577.6419999999998,534.25,0.0
27216,PSLV DEB,DEBRIS,2020-04-24 10:02:13,15.03556493,0.0031294,98.229,100.4516,291.5752,223.5328,7.891300000000001e-05,1.016e-05,0.0,0 PSLV DEB,1 27216U 01049FL  20115.41820838 +.00001016 +00000-0 +78913-4 0  9995,2 27216 098.2290 100.4516 0031294 291.5752 223.5328 15.03556493994049,6934.0769999999975,95.773,577.6419999999998,534.243,0.0
27216,PSLV DEB,DEBRIS,2020-04-24 17:53:57,15.03556586,0.0031309000000000003,98.229,100.7999,290.427,196.7828,7.4345e-05,9.53e-06,0.0,0 PSLV DEB,1 27216U 01049FL  20115.74580153 +.00000953 +00000-0 +74345-4 0  9998,2 27216 098.2290 100.7999 0031309 290.4270 196.7828 15.03556586994091,6934.0769999999975,95.773,577.6519999999998,534.232,0.0
27216,PSLV DEB,DEBRIS,2020-04-25 03:12:42,15.03557855,0.0031311999999999998,98.2291,101.2123,289.0572,137.126,8.248600000000001e-05,1.066e-05,0.0,0 PSLV DEB,1 27216U 01049FL  20116.13382008  .00001066  00000-0  82486-4 0  9992,2 27216  98.2291 101.2123 0031312 289.0572 137.1260 15.03557855994156,6934.073,95.773,577.65,534.226,0.0
27216,PSLV DEB,DEBRIS,2020-04-25 11:27:48,15.03559073,0.0031322,98.2291,101.5777,287.8488,198.2609,8.9563e-05,1.164e-05,0.0,0 PSLV DEB,1 27216U 01049FL  20116.47764773 +.00001164 +00000-0 +89563-4 0  9994,2 27216 098.2291 101.5777 0031322 287.8488 198.2609 15.03559073994202,6934.069,95.773,577.653,534.215,0.0
27216,PSLV DEB,DEBRIS,2020-04-26 09:58:59,15.03561289,0.0031335,98.2292,102.5751,284.5679,237.3518,9.7151e-05,1.268e-05,0.0,0 PSLV DEB,1 27216U 01049FL  20117.41596654  .00001268  00000-0  97151-4 0  9997,2 27216  98.2292 102.5751 0031335 284.5679 237.3518 15.03561289994347,6934.062,95.773,577.655,534.2,0.0
27216,PSLV DEB,DEBRIS,2020-04-26 22:19:01,15.03563229,0.003134,98.2292,103.1214,282.7656,139.1424,0.0001072,1.407e-05,0.0,0 PSLV DEB,1 27216U 01049FL  20117.92987640 +.00001407 +00000-0 +10720-3 0  9993,2 27216 098.2292 103.1214 0031340 282.7656 139.1424 15.03563229994429,6934.057,95.772,577.653,534.19,0.0
27216,PSLV DEB,DEBRIS,2020-04-27 22:13:59,15.03566425,0.0031341999999999997,98.2293,104.1807,279.2814,133.2213,0.00011834,1.561e-05,0.0,0 PSLV DEB,1 27216U 01049FL  20118.92638309  .00001561  00000-0  11834-3 0  9997,2 27216  98.2293 104.1807 0031342 279.2814 133.2213 15.03566425994565,6934.047,95.772,577.644,534.179,0.0
27216,PSLV DEB,DEBRIS,2020-04-28 04:39:41,15.03567792,0.0031341,98.2294,104.4654,278.3467,143.0611,0.00012684,1.678e-05,0.0,0 PSLV DEB,1 27216U 01049FL  20119.19422748 +.00001678 +00000-0 +12684-3 0  9998,2 27216 098.2294 104.4654 0031341 278.3467 143.0611 15.03567792994617,6934.0419999999995,95.772,577.639,534.1759999999998,0.0
27216,PSLV DEB,DEBRIS,2020-04-28 11:21:15,15.03568256,0.003136,98.2295,104.7618,277.4091,212.5148,0.00012387,1.638e-05,0.0,0 PSLV DEB,1 27216U 01049FL  20119.47309181 +.00001638 +00000-0 +12387-3 0  9990,2 27216 098.2295 104.7618 0031360 277.4091 212.5148 15.03568256994652,6934.041,95.772,577.651,534.161,0.0
